{
    "links": {
        "self": "http://www.neowsapp.com/rest/v1/neo/3725979?api_key=iIulBulltgU6a56xZRHN4H3l9WmuAYTsLGpBGhQ2"
    },
    "id": "3725979",
    "neo_reference_id": "3725979",
    "name": "(2015 PD228)",
    "designation": "2015 PD228",
    "nasa_jpl_url": "http://ssd.jpl.nasa.gov/sbdb.cgi?sstr=3725979",
    "absolute_magnitude_h": 22.7,
    "estimated_diameter": {
        "kilometers": {
            "estimated_diameter_min": 0.0766575574,
            "estimated_diameter_max": 0.1714115092
        },
        "meters": {
            "estimated_diameter_min": 76.6575573531,
            "estimated_diameter_max": 171.4115092306
        },
        "miles": {
            "estimated_diameter_min": 0.0476327831,
            "estimated_diameter_max": 0.1065101409
        },
        "feet": {
            "estimated_diameter_min": 251.5011804664,
            "estimated_diameter_max": 562.3737359442
        }
    },
    "is_potentially_hazardous_asteroid": false,
    "close_approach_data": [
        {
            "close_approach_date": "2015-08-03",
            "close_approach_date_full": "2015-Aug-03 10:36",
            "epoch_date_close_approach": 1438598160000,
            "relative_velocity": {
                "kilometers_per_second": "2.4939276236",
                "kilometers_per_hour": "8978.1394449809",
                "miles_per_hour": "5578.6667012438"
            },
            "miss_distance": {
                "astronomical": "0.2747629993",
                "lunar": "106.8828067277",
                "kilometers": "41103959.450091491",
                "miles": "25540816.0589089358"
            },
            "orbiting_body": "Earth"
        }
    ],
    "orbital_data": {
        "orbit_id": "6",
        "orbit_determination_date": "2017-04-06 08:32:28",
        "first_observation_date": "2015-07-24",
        "last_observation_date": "2015-09-04",
        "data_arc_in_days": 42,
        "observations_used": 20,
        "orbit_uncertainty": "7",
        "minimum_orbit_intersection": ".274373",
        "jupiter_tisserand_invariant": "3.404",
        "epoch_osculation": "2459000.5",
        "eccentricity": ".4545476747538125",
        "semi_major_axis": "2.360410350870599",
        "inclination": "1.997075153618781",
        "ascending_node_longitude": "346.7100379460628",
        "orbital_period": "1324.584572612633",
        "perihelion_distance": "1.287491314417537",
        "perihelion_argument": "325.9806875476296",
        "aphelion_distance": "3.43332938732366",
        "perihelion_time": "2458565.477611988956",
        "mean_anomaly": "118.2318312639558",
        "mean_motion": ".2717833254617559",
        "equinox": "J2000",
        "orbit_class": {
            "orbit_class_type": "AMO",
            "orbit_class_description": "Near-Earth asteroid orbits similar to that of 1221 Amor",
            "orbit_class_range": "1.017 AU < q (perihelion) < 1.3 AU"
        }
    },
    "is_sentry_object": false
}